$$SOE
2460714.500000000, A.D. 2025-Feb-08 00:00:00.0000, 4.705681900639796E+08, -3.358669866162308E+07, -5.358681728728512E+07,
2460721.500000000, A.D. 2025-Feb-15 00:00:00.0000, 4.712849382024541E+08, -2.338179215965271E+07, -5.320700565055362E+07,
2460728.500000000, A.D. 2025-Feb-22 00:00:00.0000, 4.717880071448447E+08, -1.316632109976330E+07, -5.280306833079603E+07,
2460735.500000000, A.D. 2025-Mar-01 00:00:00.0000, 4.720772529019216E+08, -2.944918456507560E+06, -5.237519787088323E+07,
2460742.500000000, A.D. 2025-Mar-08 00:00:00.0000, 4.721526367433388E+08, 7.277783533779729E+06, -5.192359845976845E+07,
2460749.500000000, A.D. 2025-Mar-15 00:00:00.0000, 4.720142250258394E+08, 1.749715777246451E+07, -5.144848564508516E+07,
2460756.500000000, A.D. 2025-Mar-22 00:00:00.0000, 4.716621867435837E+08, 2.770858527565032E+07, -5.095008595002437E+07,
2460763.500000000, A.D. 2025-Mar-29 00:00:00.0000, 4.710967923786530E+08, 3.790745588330162E+07, -5.042863679194766E+07,
2460770.500000000, A.D. 2025-Apr-05 00:00:00.0000, 4.703184143760411E+08, 4.808916983659719E+07, -4.988438647635825E+07,
2460777.500000000, A.D. 2025-Apr-12 00:00:00.0000, 4.693275273176398E+08, 5.824914032602464E+07, -4.931759408148073E+07,
2460784.500000000, A.D. 2025-Apr-19 00:00:00.0000, 4.681247076091788E+08, 6.838279612712717E+07, -4.872852928881054E+07,
2460791.500000000, A.D. 2025-Apr-26 00:00:00.0000, 4.667106329528775E+08, 7.848558411906148E+07, -4.811747220163094E+07,
2460798.500000000, A.D. 2025-May-03 00:00:00.0000, 4.650860817205508E+08, 8.855297170342644E+07, -4.748471316079652E+07,
2460805.500000000, A.D. 2025-May-10 00:00:00.0000, 4.632519322569108E+08, 9.858044913040733E+07, -4.683055256009895E+07,
2460812.500000000, A.D. 2025-May-17 00:00:00.0000, 4.612091621511702E+08, 1.085635316896242E+08, -4.615530066831894E+07,
2460819.500000000, A.D. 2025-May-24 00:00:00.0000, 4.589588476524546E+08, 1.184977617094487E+08, -4.545927747874805E+07,
2460826.500000000, A.D. 2025-May-31 00:00:00.0000, 4.565021636478782E+08, 1.283787106735116E+08, -4.474281259939243E+07,
2460833.500000000, A.D. 2025-Jun-07 00:00:00.0000, 4.538403838021378E+08, 1.382019826574333E+08, -4.400624504868126E+07,
2460840.500000000, A.D. 2025-Jun-14 00:00:00.0000, 4.509748784953190E+08, 1.479632184190257E+08, -4.324992279440085E+07,
2460847.500000000, A.D. 2025-Jun-21 00:00:00.0000, 4.479071117797680E+08, 1.576580968697784E+08, -4.247420241534822E+07,
2460854.500000000, A.D. 2025-Jun-28 00:00:00.0000, 4.446386404862054E+08, 1.672823356896490E+08, -4.167944902878194E+07,
2460861.500000000, A.D. 2025-Jul-05 00:00:00.0000, 4.411711139629030E+08, 1.768316932399812E+08, -4.086603616839616E+07,
2460868.500000000, A.D. 2025-Jul-12 00:00:00.0000, 4.375062732586420E+08, 1.863019709681472E+08, -4.003434556955322E+07,
2460875.500000000, A.D. 2025-Jul-19 00:00:00.0000, 4.336459499411340E+08, 1.956890157272848E+08, -3.918476692636140E+07,
2460882.500000000, A.D. 2025-Jul-26 00:00:00.0000, 4.295920647624301E+08, 2.049887219525349E+08, -3.831769764459450E+07,
2460889.500000000, A.D. 2025-Aug-02 00:00:00.0000, 4.253466262374997E+08, 2.141970337134010E+08, -3.743354259467793E+07,
2460896.500000000, A.D. 2025-Aug-09 00:00:00.0000, 4.209117291596271E+08, 2.233099466262496E+08, -3.653271386799619E+07,
2460903.500000000, A.D. 2025-Aug-16 00:00:00.0000, 4.162895531300963E+08, 2.323235095635539E+08, -3.561563054869512E+07,
2460910.500000000, A.D. 2025-Aug-23 00:00:00.0000, 4.114823613966015E+08, 2.412338261769693E+08, -3.468271852658167E+07,
2460917.500000000, A.D. 2025-Aug-30 00:00:00.0000, 4.064925003320065E+08, 2.500370569482210E+08, -3.373441032315825E+07,
2460924.500000000, A.D. 2025-Sep-06 00:00:00.0000, 4.013223981369658E+08, 2.587294227674119E+08, -3.277114471897187E+07,
2460931.500000000, A.D. 2025-Sep-13 00:00:00.0000, 3.959745610982194E+08, 2.673072075569128E+08, -3.179336623190799E+07,
2460938.500000000, A.D. 2025-Sep-20 00:00:00.0000, 3.904515706808169E+08, 2.757667582965593E+08, -3.080152488138312E+07,
2460945.500000000, A.D. 2025-Sep-27 00:00:00.0000, 3.847560825153091E+08, 2.841044855594788E+08, -2.979607608137584E+07,
2460952.500000000, A.D. 2025-Oct-04 00:00:00.0000, 3.788908252639064E+08, 2.923168650964168E+08, -2.877748043314388E+07,
2460959.500000000, A.D. 2025-Oct-11 00:00:00.0000, 3.728585989933422E+08, 3.004004395251905E+08, -2.774620346042778E+07,
2460966.500000000, A.D. 2025-Oct-18 00:00:00.0000, 3.666622733398850E+08, 3.083518198505612E+08, -2.670271533571056E+07,
2460973.500000000, A.D. 2025-Oct-25 00:00:00.0000, 3.603047856077390E+08, 3.161676868251947E+08, -2.564749060962082E+07,
2460980.500000000, A.D. 2025-Nov-01 00:00:00.0000, 3.537891388417663E+08, 3.238447921669114E+08, -2.458100794606389E+07,
2460987.500000000, A.D. 2025-Nov-08 00:00:00.0000, 3.471183999103633E+08, 3.313799596007359E+08, -2.350374986909622E+07,
2460994.500000000, A.D. 2025-Nov-15 00:00:00.0000, 3.402956977476108E+08, 3.387700856675476E+08, -2.241620254024190E+07,
2461001.500000000, A.D. 2025-Nov-22 00:00:00.0000, 3.333242221590546E+08, 3.460121405201447E+08, -2.131885558566648E+07,
2461008.500000000, A.D. 2025-Nov-29 00:00:00.0000, 3.262072230396441E+08, 3.531031698417405E+08, -2.021220186694069E+07,
2461015.500000000, A.D. 2025-Dec-06 00:00:00.0000, 3.189480077264872E+08, 3.600402977504917E+08, -1.909673699792199E+07,
2461022.500000000, A.D. 2025-Dec-13 00:00:00.0000, 3.115499369210057E+08, 3.668207273223102E+08, -1.797295892321406E+07,
2461029.500000000, A.D. 2025-Dec-20 00:00:00.0000, 3.040164226778145E+08, 3.734417397575997E+08, -1.684136779559749E+07,
2461036.500000000, A.D. 2025-Dec-27 00:00:00.0000, 2.963509273891840E+08, 3.799006947829702E+08, -1.570246584257144E+07,
2461043.500000000, A.D. 2026-Jan-03 00:00:00.0000, 2.885569623071153E+08, 3.861950316725657E+08, -1.455675713858087E+07,
2461050.500000000, A.D. 2026-Jan-10 00:00:00.0000, 2.806380857143590E+08, 3.923222702111500E+08, -1.340474734855378E+07,
2461057.500000000, A.D. 2026-Jan-17 00:00:00.0000, 2.725979009786402E+08, 3.982800115085926E+08, -1.224694347162408E+07,
2461064.500000000, A.D. 2026-Jan-24 00:00:00.0000, 2.644400545696055E+08, 4.040659386896759E+08, -1.108385359037066E+07,
2461071.500000000, A.D. 2026-Jan-31 00:00:00.0000, 2.561682340633594E+08, 4.096778174531676E+08, -9.915986628343135E+06,
2461078.500000000, A.D. 2026-Feb-07 00:00:00.0000, 2.477861661974069E+08, 4.151134964443340E+08, -8.743852126199156E+06,
2461085.500000000, A.D. 2026-Feb-14 00:00:00.0000, 2.392976152303865E+08, 4.203709074274481E+08, -7.567960060918719E+06,
2461092.500000000, A.D. 2026-Feb-21 00:00:00.0000, 2.307063819959459E+08, 4.254480658374078E+08, -6.388820696548790E+06,
2461099.500000000, A.D. 2026-Feb-28 00:00:00.0000, 2.220163025679518E+08, 4.303430728647612E+08, -5.206944272838324E+06,
2461106.500000000, A.D. 2026-Mar-07 00:00:00.0000, 2.132312444785734E+08, 4.350541171236546E+08, -4.022840502210766E+06,
2461113.500000000, A.D. 2026-Mar-14 00:00:00.0000, 2.043551032651631E+08, 4.395794735725832E+08, -2.837018320130795E+06,
2461120.500000000, A.D. 2026-Mar-21 00:00:00.0000, 1.953918011319726E+08, 4.439175025886813E+08, -1.649985815722942E+06,
2461127.500000000, A.D. 2026-Mar-28 00:00:00.0000, 1.863452857196002E+08, 4.480666502239095E+08, -4.622500743562579E+05,
2461134.500000000, A.D. 2026-Apr-04 00:00:00.0000, 1.772195283794650E+08, 4.520254486768253E+08, 7.256830443558693E+05,
2461141.500000000, A.D. 2026-Apr-11 00:00:00.0000, 1.680185222279667E+08, 4.557925166195047E+08, 1.913309138707370E+06,
2461148.500000000, A.D. 2026-Apr-18 00:00:00.0000, 1.587462801399163E+08, 4.593665593725413E+08, 3.100125492161483E+06,
2461155.500000000, A.D. 2026-Apr-25 00:00:00.0000, 1.494068327269830E+08, 4.627463689431996E+08, 4.285631292873681E+06,
2461162.500000000, A.D. 2026-May-02 00:00:00.0000, 1.400042263319800E+08, 4.659308238986468E+08, 5.469327840409994E+06,
2461169.500000000, A.D. 2026-May-09 00:00:00.0000, 1.305425211644617E+08, 4.689188890104844E+08, 6.650718722984582E+06,
2461176.500000000, A.D. 2026-May-16 00:00:00.0000, 1.210257899572245E+08, 4.717096148116869E+08, 7.829309941970497E+06,
2461183.500000000, A.D. 2026-May-23 00:00:00.0000, 1.114581171979345E+08, 4.743021380908940E+08, 9.004610062474757E+06,
2461190.500000000, A.D. 2026-May-30 00:00:00.0000, 1.018435968601306E+08, 4.766956836441393E+08, 1.017613060656041E+07,
2461197.500000000, A.D. 2026-Jun-06 00:00:00.0000, 9.218632831664360E+07, 4.788895640089380E+08, 1.134338645064041E+07,
2461204.500000000, A.D. 2026-Jun-13 00:00:00.0000, 8.249041410077964E+07, 4.808831773814768E+08, 1.250589590705913E+07,
2461211.500000000, A.D. 2026-Jun-20 00:00:00.0000, 7.275995901586211E+07, 4.826760066454311E+08, 1.366318077462226E+07,
2461218.500000000, A.D. 2026-Jun-27 00:00:00.0000, 6.299906889589009E+07, 4.842676191725864E+08, 1.481476648572174E+07,
2461225.500000000, A.D. 2026-Jul-04 00:00:00.0000, 5.321184901735027E+07, 4.856576666205599E+08, 1.596018228646189E+07,
2461232.500000000, A.D. 2026-Jul-11 00:00:00.0000, 4.340240241628053E+07, 4.868458845965613E+08, 1.709896141545007E+07,
2461239.500000000, A.D. 2026-Jul-18 00:00:00.0000, 3.357482820361073E+07, 4.878320922139463E+08, 1.823064127458590E+07,
2461246.500000000, A.D. 2026-Jul-25 00:00:00.0000, 2.373321990356373E+07, 4.886161915453042E+08, 1.935476358959469E+07,
2461253.500000000, A.D. 2026-Aug-01 00:00:00.0000, 1.388166386351330E+07, 4.891981669249279E+08, 2.047087455177075E+07,
2461260.500000000, A.D. 2026-Aug-08 00:00:00.0000, 4.024237950335880E+06, 4.895780840658072E+08, 2.157852491815966E+07,
2461267.500000000, A.D. 2026-Aug-15 00:00:00.0000, -5.834989051716737E+06, 4.897560894429268E+08, 2.267727006885773E+07,
2461274.500000000, A.D. 2026-Aug-22 00:00:00.0000, -1.569195810229284E+07, 4.897324111662439E+08, 2.376667019099188E+07,
2461281.500000000, A.D. 2026-Aug-29 00:00:00.0000, -2.554262291314948E+07, 4.895073599711961E+08, 2.484629068702018E+07,
$$EOE